[{"OBJECT_NAME":"STARLINK-5995","OBJECT_ID":"2023-064J","EPOCH":"2026-03-09T14:44:24.607680","MEAN_MOTION":14.98321135,"ECCENTRICITY":0.0003054,"INCLINATION":70.0005,"RA_OF_ASC_NODE":144.6943,"ARG_OF_PERICENTER":267.8825,"MEAN_ANOMALY":92.1984,"EPHEMERIS_TYPE":0,"CLASSIFICATION_TYPE":"U","NORAD_CAT_ID":56456,"ELEMENT_SET_NO":999,"REV_AT_EPOCH":15523,"BSTAR":-0.00012353,"MEAN_MOTION_DOT":-1.566e-5,"MEAN_MOTION_DDOT":0},{"OBJECT_NAME":"FENGYUN 1C DEB","OBJECT_ID":"1999-025CWT","EPOCH":"2026-03-07T12:20:18.865536","MEAN_MOTION":14.78969829,"ECCENTRICITY":0.00944747,"INCLINATION":98.6527,"RA_OF_ASC_NODE":273.8426,"ARG_OF_PERICENTER":72.7865,"MEAN_ANOMALY":288.3658,"EPHEMERIS_TYPE":0,"CLASSIFICATION_TYPE":"U","NORAD_CAT_ID":32245,"ELEMENT_SET_NO":999,"REV_AT_EPOCH":67358,"BSTAR":0.0016597334,"MEAN_MOTION_DOT":0.00013167,"MEAN_MOTION_DDOT":0}]
